NORAD_CAT_ID,OBJECT_NAME,OBJECT_TYPE,EPOCH,MEAN_MOTION,ECCENTRICITY,INCLINATION,RA_OF_ASC_NODE,ARG_OF_PERICENTER,MEAN_ANOMALY,BSTAR,MEAN_MOTION_DOT,MEAN_MOTION_DDOT,TLE_LINE0,TLE_LINE1,TLE_LINE2,SEMIMAJOR_AXIS,PERIOD,APOGEE,PERIGEE,DECAYED
51805.0,STARLINK-3605,PAYLOAD,2024-08-14 17:00:31,15.08870563,0.0001337,53.2171,16.9194,75.7124,284.4017,0.0021289,0.00033785,0.0,0 STARLINK-3605,1 51805U 22017AP  24227.70869492  .00033785  00000-0  21289-2 0  9993,2 51805  53.2171  16.9194 0001337  75.7124 284.4017 15.08870563137897,6917.787,95.436,540.577,538.727,0.0
51805.0,STARLINK-3605,PAYLOAD,2024-08-15 12:05:07,15.0885093,0.0001217,53.2168,13.3516,96.8199,263.2931,0.00058426,9.026e-05,0.0,0 STARLINK-3605,1 51805U 22017AP  24228.50356460  .00009026  00000-0  58426-3 0  9993,2 51805  53.2168  13.3516 0001217  96.8199 263.2931 15.08850930138016,6917.847,95.437,540.554,538.87,0.0
51805.0,STARLINK-3605,PAYLOAD,2024-08-15 16:51:17,15.0885276,0.0001212,53.2168,12.4598,92.9633,267.1497,0.0014138,0.00022292,0.0,0 STARLINK-3605,1 51805U 22017AP  24228.70228370  .00022292  00000-0  14138-2 0  9994,2 51805  53.2168  12.4598 0001212  92.9633 267.1497 15.08852760138047,6917.841,95.437,540.545,538.868,0.0
51805.0,STARLINK-3605,PAYLOAD,2024-08-16 10:20:31,15.08844462,0.0001271,53.2165,9.1892,86.2133,273.9005,5.417e-05,5.74e-06,0.0,0 STARLINK-3605,1 51805U 22017AP  24229.43092100  .00000574  00000-0  54170-4 0  9996,2 51805  53.2165   9.1892 0001271  86.2133 273.9005 15.08844462138152,6917.867,95.437,540.611,538.852,0.0
51805.0,STARLINK-3605,PAYLOAD,2024-08-16 19:52:50,15.08858373,0.0001315,53.2163,7.405,86.1776,273.9367,0.0008477,0.00013236,0.0,0 STARLINK-3605,1 51805U 22017AP  24229.82835810  .00013236  00000-0  84770-3 0  9999,2 51805  53.2163   7.4050 0001315  86.1776 273.9367 15.08858373138212,6917.824,95.436,540.599,538.78,0.0
51805.0,STARLINK-3605,PAYLOAD,2024-08-17 08:35:56,15.08858394,0.0003715,53.2165,5.0256,72.0728,288.0669,0.0011345,0.00017824,0.0,0 STARLINK-3605,1 51805U 22017AP  24230.35828744  .00017824  00000-0  11345-2 0  9991,2 51805  53.2165   5.0256 0003715  72.0728 288.0669 15.08858394138296,6917.824,95.436,542.259,537.119,0.0
51805.0,STARLINK-3605,PAYLOAD,2024-08-18 08:26:42,15.0885055,5.42e-05,53.2139,0.5612,84.5409,275.5645,0.00089001,0.00013909,0.0,0 STARLINK-3605,1 51805U 22017AP  24231.35188376  .00013909  00000-0  89001-3 0  9997,2 51805  53.2139   0.5612 0000542  84.5409 275.5645 15.08850550138440,6917.848,95.437,540.088,539.338,0.0
51805.0,STARLINK-3605,PAYLOAD,2024-08-18 16:23:37,15.0889217,0.0001237,53.2168,359.0778,91.6554,268.458,0.0017162,0.0002717,0.0,0 STARLINK-3605,1 51805U 22017AP  24231.68307399  .00027170  00000-0  17162-2 0  9994,2 51805  53.2168 359.0778 0001237  91.6554 268.4580 15.08892170138497,6917.721,95.434,540.442,538.73,0.0
51805.0,STARLINK-3605,PAYLOAD,2024-08-19 11:28:15,15.08848841,0.0001062,53.2174,355.51,70.5151,289.5956,0.0014394,0.000227,0.0,0 STARLINK-3605,1 51805U 22017AP  24232.47795805  .00022700  00000-0  14394-2 0  9993,2 51805  53.2174 355.5100 0001062  70.5151 289.5956 15.08848841138610,6917.853,95.437,540.453,538.984,0.0
51805.0,STARLINK-3605,PAYLOAD,2024-08-19 14:39:01,15.08825388,0.0001908,53.219,354.9152,106.2062,253.914,0.00089906,0.00014044,0.0,0 STARLINK-3605,1 51805U 22017AP  24232.61043818  .00014044  00000-0  89906-3 0  9993,2 51805  53.2190 354.9152 0001908 106.2062 253.9140 15.08825388138638,6917.925,95.438,541.11,538.47,0.0
51805.0,STARLINK-3605,PAYLOAD,2024-08-19 17:49:48,15.08804921,0.0001601,53.2176,354.3202,113.7504,246.3656,0.0018556,0.00029339,0.0,0 STARLINK-3605,1 51805U 22017AP  24232.74292368  .00029339  00000-0  18556-2 0  9998,2 51805  53.2176 354.3202 0001601 113.7504 246.3656 15.08804921138656,6917.988,95.44,540.96,538.745,0.0
51805.0,STARLINK-3605,PAYLOAD,2024-08-20 14:29:49,15.08855687,0.0001542,53.2182,350.4557,108.1877,251.9284,0.0018237,0.00028868,0.0,0 STARLINK-3605,1 51805U 22017AP  24233.60404815  .00028868  00000-0  18237-2 0  9998,2 51805  53.2182 350.4557 0001542 108.1877 251.9284 15.08855687138786,6917.832,95.437,540.764,538.631,0.0
51805.0,STARLINK-3605,PAYLOAD,2024-08-21 12:45:13,15.0884872,0.0001406,53.2189,346.2916,110.2988,249.8155,0.00040059,6.095e-05,0.0,0 STARLINK-3605,1 51805U 22017AP  24234.53140685  .00006095  00000-0  40059-3 0  9999,2 51805  53.2189 346.2916 0001406 110.2988 249.8155 15.08848720138920,6917.854,95.437,540.691,538.746,0.0
51805.0,STARLINK-3605,PAYLOAD,2024-08-21 14:20:36,15.08844088,0.0001165,53.2185,345.9994,92.3789,267.7336,0.00031299,4.697e-05,0.0,0 STARLINK-3605,1 51805U 22017AP  24234.59764913  .00004697  00000-0  31299-3 0  9993,2 51805  53.2185 345.9994 0001165  92.3789 267.7336 15.08844088138933,6917.868,95.437,540.539,538.927,0.0
